[{"OBJECT_NAME":"AEROCUBE 4.5A","OBJECT_ID":"2012-048K","EPOCH":"2026-03-09T23:30:53.651232","MEAN_MOTION":15.62097136,"ECCENTRICITY":0.00407508,"INCLINATION":64.6384,"RA_OF_ASC_NODE":19.0525,"ARG_OF_PERICENTER":211.9552,"MEAN_ANOMALY":147.9122,"EPHEMERIS_TYPE":0,"CLASSIFICATION_TYPE":"U","NORAD_CAT_ID":38767,"ELEMENT_SET_NO":999,"REV_AT_EPOCH":35703,"BSTAR":0.0010922172,"MEAN_MOTION_DOT":0.00101362,"MEAN_MOTION_DDOT":0},{"OBJECT_NAME":"STARLINK-11588 [DTC]","OBJECT_ID":"2025-057N","EPOCH":"2026-03-09T21:52:29.118432","MEAN_MOTION":15.70893396,"ECCENTRICITY":0.00010565,"INCLINATION":43.0003,"RA_OF_ASC_NODE":263.0869,"ARG_OF_PERICENTER":294.7662,"MEAN_ANOMALY":65.3095,"EPHEMERIS_TYPE":0,"CLASSIFICATION_TYPE":"U","NORAD_CAT_ID":63319,"ELEMENT_SET_NO":999,"REV_AT_EPOCH":5721,"BSTAR":0.0023805764,"MEAN_MOTION_DOT":0.00317697,"MEAN_MOTION_DDOT":0}]
